OBJECT_NAME,OBJECT_ID,EPOCH,MEAN_MOTION,ECCENTRICITY,INCLINATION,RA_OF_ASC_NODE,ARG_OF_PERICENTER,MEAN_ANOMALY,EPHEMERIS_TYPE,CLASSIFICATION_TYPE,NORAD_CAT_ID,ELEMENT_SET_NO,REV_AT_EPOCH,BSTAR,MEAN_MOTION_DOT,MEAN_MOTION_DDOT
STARLINK-36087,2025-281G,2026-07-14T12:12:36.465696,15.27600134,.00025342,43.0030,347.0293,287.2052,72.8522,0,U,66854,999,3558,.54960331E-3,.14902E-3,0
STARLINK-36090,2025-281H,2026-07-14T18:14:25.386720,15.27581780,.0001789,43.0002,345.4653,248.0037,112.0625,0,U,66855,999,3562,.27528661E-3,.7321E-4,0
STARLINK-36072,2025-281J,2026-07-14T18:03:32.143968,15.27581905,.00027972,43.0006,346.2783,275.2071,84.8462,0,U,66856,999,3561,.420627E-3,.11331E-3,0
STARLINK-36083,2025-281K,2026-07-14T11:35:48.725376,15.27580215,.0001721,43.0030,347.6984,270.4427,89.6227,0,U,66857,999,3557,.36679721E-3,.9845E-4,0
STARLINK-35118,2025-281L,2026-07-14T11:15:27.061344,15.27588878,.00014273,43.0021,347.5866,190.6389,169.4432,0,U,66858,999,3557,.56540287E-3,.15333E-3,0
STARLINK-35646,2025-281M,2026-07-14T09:35:45.248064,15.27587113,.0000931,43.0007,347.9279,219.9297,140.1486,0,U,66859,999,3556,.33062915E-3,.8849E-4,0
STARLINK-35987,2025-281N,2026-07-14T10:45:50.844960,15.27589100,.00012812,42.9996,347.4281,227.6503,132.4240,0,U,66860,999,3557,.27829006E-3,.7406E-4,0
STARLINK-35991,2025-281P,2026-07-14T10:32:53.939616,15.27597438,.00018282,42.9993,347.3650,275.3898,84.6745,0,U,66861,999,3557,.32869568E-3,.8798E-4,0
STARLINK-35974,2025-281Q,2026-07-15T04:00:03.000096,15.27593111,.0001447,43.0032,343.5469,268.2356,15.2554,0,U,66862,999,574,-.69034E-3,-.19217E-3,0
STARLINK-36134,2025-281R,2026-07-14T11:52:14.627136,15.27589487,.00018822,42.9992,346.9101,262.8942,97.1695,0,U,66863,999,3558,.31780207E-3,.8496E-4,0
STARLINK-36070,2025-281S,2026-07-14T11:32:06.366336,15.27584226,.00015654,43.0031,347.6780,259.9170,100.1505,0,U,66864,999,3557,.42448793E-3,.11438E-3,0
STARLINK-36117,2025-281T,2026-07-14T12:03:20.984544,15.27592792,.00012842,42.9992,346.9731,245.6812,114.3906,0,U,66865,999,3558,.43964637E-3,.1186E-3,0
STARLINK-36126,2025-281U,2026-07-14T11:48:45.458784,15.27591131,.0001451,42.9975,347.7581,198.5644,161.5155,0,U,66866,999,3556,.52105E-3,.14109E-3,0
STARLINK-36101,2025-281V,2026-07-14T17:59:50.336160,15.27583195,.00018191,43.0035,346.2598,288.2441,71.8213,0,U,66867,999,3560,.35592529E-3,.9546E-4,0
STARLINK-36108,2025-281W,2026-07-14T11:37:39.085824,15.27560575,.00014393,43.0024,347.7053,265.9248,94.1439,0,U,66868,999,3556,.4808762E-3,.12986E-3,0
STARLINK-36092,2025-281X,2026-07-14T11:28:24.477312,15.27576852,.00015782,43.0027,347.6581,272.3949,87.6722,0,U,66869,999,3556,.25729223E-3,.6824E-4,0
STARLINK-36114,2025-281Y,2026-07-14T17:39:28.783584,15.27582020,.00018648,43.0030,346.1507,279.8214,80.2427,0,U,66870,999,3560,.32877014E-3,.8796E-4,0
STARLINK-36095,2025-281Z,2026-07-14T11:17:18.877632,15.27607390,.00018934,43.0045,347.5980,266.3177,93.7458,0,U,66871,999,3555,.42320397E-3,.11411E-3,0
STARLINK-36082,2025-281AA,2026-07-14T09:37:35.810688,15.27579453,.00012582,42.9991,347.9309,217.3137,142.7627,0,U,66872,999,3555,.32794664E-3,.8773E-4,0
STARLINK-36128,2025-281AB,2026-07-14T10:56:56.791104,15.27582672,.00011722,42.9913,347.4731,180.1220,179.9631,0,U,66873,999,3551,.31629634E-3,.8453E-4,0
STARLINK-36129,2025-281AC,2026-07-14T11:06:12.107232,15.27602667,.00026135,43.0055,347.5399,283.9210,76.1351,0,U,66874,999,3556,.87657457E-3,.23955E-3,0
STARLINK-36053,2025-281AD,2026-07-14T10:51:23.165280,15.27597043,.00024613,43.0018,347.4560,290.0863,69.9723,0,U,66875,999,3551,.50207723E-3,.13587E-3,0
STARLINK-35702,2025-281AE,2026-07-14T17:17:16.761696,15.27587069,.00008328,42.9991,346.0297,288.2569,71.8192,0,U,66876,999,3560,.4585618E-3,.12381E-3,0
STARLINK-35866,2025-283A,2026-07-15T04:06:39.619296,15.30199555,.0001421,53.1579,151.9246,94.3845,265.7318,0,U,66878,999,3536,.29309E-3,.8331E-4,0
STARLINK-35749,2025-283B,2026-07-15T03:49:56.677728,15.30207963,.0001132,53.1580,151.8509,115.3780,244.7338,0,U,66879,999,3536,.64872E-3,.18908E-3,0
STARLINK-35844,2025-283C,2026-07-15T03:57:32.593248,15.30205548,.0001419,53.1571,151.8859,94.6828,265.4335,0,U,66880,999,3536,.29317E-3,.8335E-4,0
STARLINK-35860,2025-283D,2026-07-15T03:40:49.185120,15.30182723,.0001126,53.1593,151.8078,81.3980,278.7149,0,U,66881,999,3536,.13106E-3,.3522E-4,0
STARLINK-35912,2025-283E,2026-07-15T03:16:25.828320,15.34402312,.0001381,53.1587,150.2947,83.8942,276.2218,0,U,66882,999,3538,.33597E-3,.10992E-3,0
STARLINK-35947,2025-283F,2026-07-15T03:28:32.954304,15.34401125,.000144,53.1585,150.3455,96.2206,263.8961,0,U,66883,999,3540,.37691E-3,.1238E-3,0
STARLINK-36057,2025-283G,2026-07-15T02:40:11.785728,15.34398920,.0001393,53.1552,150.8470,88.6672,271.4490,0,U,66884,999,3537,.21113E-3,.6763E-4,0
