STARLINK-36087          
1 66854U 25281G   26195.50875539  .00014902  00000+0  54960-3 0  9994
2 66854  43.0030 347.0293 0002534 287.2052  72.8522 15.27600134 35585
STARLINK-36090          
1 66855U 25281H   26195.76001605  .00007321  00000+0  27529-3 0  9996
2 66855  43.0002 345.4653 0001789 248.0037 112.0625 15.27581780 35627
STARLINK-36072          
1 66856U 25281J   26195.75245537  .00011331  00000+0  42063-3 0  9996
2 66856  43.0006 346.2783 0002797 275.2071  84.8462 15.27581905 35618
STARLINK-36083          
1 66857U 25281K   26195.48320284  .00009845  00000+0  36680-3 0  9995
2 66857  43.0030 347.6984 0001721 270.4427  89.6227 15.27580215 35572
STARLINK-35118          
1 66858U 25281L   26195.46906321  .00015333  00000+0  56540-3 0  9992
2 66858  43.0021 347.5866 0001427 190.6389 169.4432 15.27588878 35572
STARLINK-35646          
1 66859U 25281M   26195.39982926  .00008849  00000+0  33063-3 0  9999
2 66859  43.0007 347.9279 0000931 219.9297 140.1486 15.27587113 35566
STARLINK-35987          
1 66860U 25281N   26195.44850515  .00007406  00000+0  27829-3 0  9996
2 66860  42.9996 347.4281 0001281 227.6503 132.4240 15.27589100 35577
STARLINK-35991          
1 66861U 25281P   26195.43951319  .00008798  00000+0  32870-3 0  9997
2 66861  42.9993 347.3650 0001828 275.3898  84.6745 15.27597438 35579
STARLINK-35974          
1 66862U 25281Q   26196.16670139 -.00019217  00000+0 -69034-3 0  9999
2 66862  43.0032 343.5469 0001447 268.2356  15.2554 15.27593111  5747
STARLINK-36134          
1 66863U 25281R   26195.49461374  .00008496  00000+0  31780-3 0  9996
2 66863  42.9992 346.9101 0001882 262.8942  97.1695 15.27589487 35586
STARLINK-36070          
1 66864U 25281S   26195.48062924  .00011438  00000+0  42449-3 0  9998
2 66864  43.0031 347.6780 0001565 259.9170 100.1505 15.27584226 35572
STARLINK-36117          
1 66865U 25281T   26195.50232621  .00011860  00000+0  43965-3 0  9998
2 66865  42.9992 346.9731 0001284 245.6812 114.3906 15.27592792 35588
STARLINK-36126          
1 66866U 25281U   26195.49219281  .00014109  00000+0  52105-3 0  9999
2 66866  42.9975 347.7581 0001451 198.5644 161.5155 15.27591131 35561
STARLINK-36101          
1 66867U 25281V   26195.74988815  .00009546  00000+0  35593-3 0  9995
2 66867  43.0035 346.2598 0001819 288.2441  71.8213 15.27583195 35607
STARLINK-36108          
1 66868U 25281W   26195.48448016  .00012986  00000+0  48088-3 0  9996
2 66868  43.0024 347.7053 0001439 265.9248  94.1439 15.27560575 35563
STARLINK-36092          
1 66869U 25281X   26195.47806108  .00006824  00000+0  25729-3 0  9997
2 66869  43.0027 347.6581 0001578 272.3949  87.6722 15.27576852 35563
STARLINK-36114          
1 66870U 25281Y   26195.73574981  .00008796  00000+0  32877-3 0  9991
2 66870  43.0030 346.1507 0001864 279.8214  80.2427 15.27582020 35606
STARLINK-36095          
1 66871U 25281Z   26195.47035738  .00011411  00000+0  42320-3 0  9997
2 66871  43.0045 347.5980 0001893 266.3177  93.7458 15.27607390 35559
STARLINK-36082          
1 66872U 25281AA  26195.40110892  .00008773  00000+0  32795-3 0  9998
2 66872  42.9991 347.9309 0001258 217.3137 142.7627 15.27579453 35555
STARLINK-36128          
1 66873U 25281AB  26195.45621286  .00008453  00000+0  31630-3 0  9990
2 66873  42.9913 347.4731 0001172 180.1220 179.9631 15.27582672 35519
STARLINK-36129          
1 66874U 25281AC  26195.46264013  .00023955  00000+0  87657-3 0  9997
2 66874  43.0055 347.5399 0002613 283.9210  76.1351 15.27602667 35561
STARLINK-36053          
1 66875U 25281AD  26195.45235145  .00013587  00000+0  50208-3 0  9993
2 66875  43.0018 347.4560 0002461 290.0863  69.9723 15.27597043 35513
STARLINK-35702          
1 66876U 25281AE  26195.72033289  .00012381  00000+0  45856-3 0  9993
2 66876  42.9991 346.0297 0000832 288.2569  71.8192 15.27587069 35605
STARLINK-35866          
1 66878U 25283A   26196.17129189  .00008331  00000+0  29309-3 0  9997
2 66878  53.1579 151.9246 0001421  94.3845 265.7318 15.30199555 35368
STARLINK-35749          
1 66879U 25283B   26196.15968377  .00018908  00000+0  64872-3 0  9991
2 66879  53.1580 151.8509 0001132 115.3780 244.7338 15.30207963 35365
STARLINK-35844          
1 66880U 25283C   26196.16496057  .00008335  00000+0  29317-3 0  9993
2 66880  53.1571 151.8859 0001419  94.6828 265.4335 15.30205548 35369
STARLINK-35860          
1 66881U 25283D   26196.15334705  .00003522  00000+0  13106-3 0  9996
2 66881  53.1593 151.8078 0001126  81.3980 278.7149 15.30182723 35363
STARLINK-35912          
1 66882U 25283E   26196.13641005  .00010992  00000+0  33597-3 0  9994
2 66882  53.1587 150.2947 0001381  83.8942 276.2218 15.34402312 35388
STARLINK-35947          
1 66883U 25283F   26196.14482586  .00012380  00000+0  37691-3 0  9995
2 66883  53.1585 150.3455 0001440  96.2206 263.8961 15.34401125 35400
STARLINK-36057          
1 66884U 25283G   26196.11124752  .00006763  00000+0  21113-3 0  9991
2 66884  53.1552 150.8470 0001393  88.6672 271.4490 15.34398920 35372
